LEMUR-2-THENICKMOLO
1 43185U 18014F   24002.67314292  .00011581  00000-0  73289-3 0  9995
2 43185  97.5958 267.5252 0008066 170.7425 189.3954 15.09124709323646
